{
  "norad_id": 40118,
  "name": "GAOFEN-2",
  "history": [
    {
      "epoch": "2026-03-28T21:41:07.835424Z",
      "apogee_km": 632.6918041644185,
      "perigee_km": 620.9229372261007,
      "latitude_deg": -2.092025894326136e-05,
      "longitude_deg": 0.56532716026264,
      "height_km": 633.3363297139618,
      "semi_major_axis_km": 7004.94437069526,
      "eccentricity": 0.00084004,
      "inclination_deg": 98.0188,
      "raan_deg": 152.1653,
      "arg_perigee_deg": 126.769,
      "mean_anomaly_deg": 233.4294,
      "mean_motion_rev_day": 14.80797682
    },
    {
      "epoch": "2026-03-29T04:10:20.754048Z",
      "apogee_km": 632.6962313127751,
      "perigee_km": 620.9153185538926,
      "latitude_deg": -6.920508820470282e-05,
      "longitude_deg": -96.73460203739062,
      "height_km": 633.2910324657934,
      "semi_major_axis_km": 7004.942774933334,
      "eccentricity": 0.0008409,
      "inclination_deg": 98.0187,
      "raan_deg": 152.4356,
      "arg_perigee_deg": 126.1983,
      "mean_anomaly_deg": 234.0007,
      "mean_motion_rev_day": 14.80798188
    }
  ]
}